STARLINK-1845           
1 47135U 20088P   22049.14745393 -.00000307  00000+0 -16919-5 0  9993
2 47135  53.0556  98.0464 0001319  25.2544 334.8509 15.06388562 69138
STARLINK-1846           
1 47136U 20088Q   22049.14652842  .00006553  00000+0  45828-3 0  9996
2 47136  53.0543 108.0394 0001218  73.7632 286.3491 15.06408564 68981
STARLINK-1849           
1 47137U 20088R   22048.86363414  .00002135  00000+0  16218-3 0  9992
2 47137  53.0542  99.3038 0001389  68.8266 291.2871 15.06402171 68788
STARLINK-1850           
1 47138U 20088S   22048.63185638  .00002996  00000+0  21990-3 0  9996
2 47138  53.0549 105.3440 0001515  62.7267 297.3876 15.06404555 68685
STARLINK-1852           
1 47139U 20088T   22048.89263735  .00003643  00000+0  26329-3 0  9991
2 47139  53.0546 114.1831 0001629  66.2496 293.8664 15.06407042 68572
STARLINK-1854           
1 47141U 20088V   22048.83782464  .00001819  00000+0  14096-3 0  9994
2 47141  53.0559  99.4236 0001437  71.6372 288.4773 15.06406539 68787
STARLINK-1856           
1 47143U 20088X   22048.62036581  .00003204  00000+0  23381-3 0  9992
2 47143  53.0534 100.3852 0001408  60.8034 299.3096 15.06417216 68740
STARLINK-1857           
1 47144U 20088Y   22048.80557939  .00001256  00000+0  10322-3 0  9994
2 47144  53.0546  89.5732 0001896  48.2909 311.8242 15.06403181 68919
STARLINK-1858           
1 47145U 20088Z   22049.11814423  .00057859  00000+0  18843-2 0  9999
2 47145  53.0532  83.8407 0002802  65.5410 294.5882 15.31310208 69270
STARLINK-1859           
1 47146U 20088AA  22048.83687049  .00216599  00000+0  15865-2 0  9999
2 47146  53.0537  89.0603 0005438 289.6552  70.3879 15.71992352 68923
STARLINK-1860           
1 47147U 20088AB  22049.16127317  .00000926  00000+0  81044-4 0  9993
2 47147  53.0541 107.9808 0001661  60.4353 299.6801 15.06413379 68942
STARLINK-1861           
1 47148U 20088AC  22048.87100560  .00003547  00000+0  25689-3 0  9996
2 47148  53.0530  99.2865 0001496  59.0609 301.0527 15.06401741 68786
STARLINK-1862           
1 47149U 20088AD  22049.09860388  .00000299  00000+0  38992-4 0  9996
2 47149  53.0540 108.2497 0001442  71.9336 288.1810 15.06393335 68937
STARLINK-1863           
1 47150U 20088AE  22048.82677627  .00002551  00000+0  19009-3 0  9990
2 47150  53.0528  99.4690 0001542  71.7838 288.3319 15.06394549 68784
STARLINK-1864           
1 47151U 20088AF  22048.89219870  .00001078  00000+0  91263-4 0  9996
2 47151  53.0543 109.1823 0001495  62.7114 297.4027 15.06401328 68649
STARLINK-1866           
1 47152U 20088AG  22049.14284128  .00004746  00000+0  33719-3 0  9990
2 47152  53.0534 108.0654 0001512  67.2188 292.8961 15.06409319 68937
STARLINK-1867           
1 47153U 20088AH  22048.65304418 -.00001664  00000+0 -92854-4 0  9995
2 47153  53.0541 115.2522 0001383  64.8027 295.3105 15.06405463 68799
STARLINK-1868           
1 47154U 20088AJ  22048.84887583  .00002483  00000+0  18553-3 0  9997
2 47154  53.0537  99.3701 0001349  60.6636 299.4488 15.06399621 68784
STARLINK-1869           
1 47155U 20088AK  22048.88389109  .00005294  00000+0  37395-3 0  9991
2 47155  53.0548 119.2045 0001918  52.6847 307.4317 15.06408125 68508
STARLINK-1870           
1 47156U 20088AL  22049.09849197  .00001714  00000+0  12132-4 0  9990
2 47156  53.0552 354.6227 0008085 276.4622  83.5479 15.81150228 70538
STARLINK-1871           
1 47157U 20088AM  22048.85533271  .00000291  00000+0  38474-4 0  9993
2 47157  53.0534 109.3332 0001688  59.7079 300.4077 15.06397035 68898
STARLINK-1873           
1 47158U 20088AN  22048.61298603  .00002038  00000+0  15564-3 0  9990
2 47158  53.0548 100.4187 0001437  64.8839 295.2298 15.06402056 68747
STARLINK-1874           
1 47159U 20088AP  22049.08951864  .00346423  00000+0  23404-2 0  9998
2 47159  53.0509  78.0151 0007285 276.8136  83.2053 15.73492136 69352
STARLINK-1876           
1 47161U 20088AR  22048.84520786  .00006118  00000+0  42925-3 0  9993
2 47161  53.0530  99.3819 0001401  60.4856 299.6272 15.06401183 68786
STARLINK-1877           
1 47162U 20088AS  22048.57521392  .00002186  00000+0  16553-3 0  9997
2 47162  53.0542 110.5951 0001612  71.5617 288.5547 15.06413053 68607
STARLINK-1878           
1 47163U 20088AT  22048.67380323  .00001348  00000+0  10938-3 0  9996
2 47163  53.0491 120.1598 0001216  68.0745 292.0373 15.06407373 68478
STARLINK-1879           
1 47164U 20088AU  22048.59547803 -.00000679  00000+0 -26682-4 0  9998
2 47164  53.0555  90.5069 0001859  50.0475 310.0677 15.06396974 68884
STARLINK-1880           
1 47165U 20088AV  22049.19813433  .00001660  00000+0  13034-3 0  9996
2 47165  53.0540 107.7970 0001353  72.6678 287.4459 15.06392053 68941
STARLINK-1881           
1 47166U 20088AW  22049.05712725  .00033988  00000+0  93853-3 0  9999
2 47166  53.0503  50.6073 0001287  80.6705 279.4443 15.36776363 69743
STARLINK-1884           
1 47167U 20088AX  22048.85164909  .00002584  00000+0  19219-3 0  9994
2 47167  53.0526 109.3580 0000341 352.0303   8.0681 15.06410244 68642
STARLINK-1885           
1 47168U 20088AY  22048.82452341  .00044277  00000+0  96583-3 0  9996
2 47168  53.0536  93.0850 0006596 279.6405  80.3855 15.43796737 68874
STARLINK-1887           
1 47170U 20088BA  22049.10229402  .00002559  00000+0  19066-3 0  9999
2 47170  53.0529 108.2330 0001525  69.8606 290.2547 15.06394339 68972
STARLINK-1888           
1 47171U 20088BB  22048.85627918  .00005430  00000+0  38325-3 0  9995
2 47171  53.0525  99.3428 0001652  59.8376 300.2777 15.06393054 69073
STARLINK-1889           
1 47172U 20088BC  22049.14604910  .00097270  00000+0  48799-3 0  9995
2 47172  53.0476  45.5228 0003564  68.1719 291.9681 15.80989787 69850
STARLINK-1890           
1 47173U 20088BD  22048.58257140  .00002067  00000+0  15762-3 0  9996
2 47173  53.0569 110.5497 0001706  47.1932 312.9200 15.06394354 68897
STARLINK-1891           
1 47174U 20088BE  22048.85901985  .00001870  00000+0  14440-3 0  9993
2 47174  53.0540 109.3357 0001711  50.6025 309.5115 15.06400614 68643
STARLINK-1895           
1 47175U 20088BF  22049.12256980  .00000800  00000+0  72612-4 0  9991
2 47175  53.0543  88.1359 0001721  54.0079 306.1070 15.06390891 68964
STARLINK-1907           
1 47177U 20088BH  22048.84153156  .00013711  00000+0  93728-3 0  9997
2 47177  53.0537  99.3986 0001326  69.6170 290.4961 15.06412432 69077
STARLINK-1912           
1 47178U 20088BJ  22049.15389931  .00000593  00000+0  58707-4 0  9998
2 47178  53.0537 107.9923 0001667  72.9518 287.1654 15.06404829 68685
STARLINK-1913           
1 47179U 20088BK  22048.61113459  .00010125  00000+0  69721-3 0  9998
2 47179  53.0531 120.4295 0001457  71.7687 288.3460 15.06421330 68463
STARLINK-1927           
1 47181U 20088BM  22049.11519150  .00001445  00000+0  11589-3 0  9999
2 47181  53.0552  88.1776 0001890  51.9613 308.1546 15.06394126 69215
LUCAS (JDRS-1)          
1 47202U 20089A   22048.85813248 -.00000233  00000+0  00000+0 0  9996
2 47202   0.0111 135.1867 0003488 192.3220 219.9552  1.00269269  4577
FALCON EYE 2            
1 47226U 20090A   22049.11527354  .00000981  00000+0  12152-3 0  9998
2 47226  97.8613 125.5404 0001548  96.3660 263.7911 14.84932590 65753
GONETS-M 20             
1 47227U 20091A   22049.16294963  .00000017  00000+0  51350-4 0  9996
2 47227  82.5036 204.5072 0020860  31.1802 329.0512 12.42870646 54921
GONETS-M 21             
1 47228U 20091B   22049.13943756  .00000049  00000+0  28545-3 0  9999
2 47228  82.4958 204.2134 0014959  44.5463 315.6817 12.42887455 54917
GONETS-M 22             
1 47229U 20091C   22049.19231630  .00000041  00000+0  22235-3 0  9999
2 47229  82.5014 204.3424 0021726  24.8011 335.4107 12.42880663 54911
COSMOS 2548             
1 47230U 20091D   22049.19594243 -.00000008  00000+0 -13080-3 0  9996
2 47230  82.4999 204.2738 0015370  43.6396 316.5896 12.42883301 54922
GAOFEN 14               
1 47231U 20092A   22049.14720469  .00005152  00000+0  20579-3 0  9998
2 47231  97.3969 128.3276 0001382 211.2319 205.4687 15.25572496 66925
GECAM-A                 
1 47234U 20094A   22049.20989758  .00001082  00000+0  93377-4 0  9993
2 47234  28.9986 117.1333 0012705 100.8576 259.3450 14.90937457 64989
GECAM-B                 
1 47235U 20094B   22049.18426120  .00001209  00000+0  10569-3 0  9992
2 47235  28.9985 116.9208 0013052 100.3597 259.8468 14.91033608 64981
SXM-7                   
1 47240U 20096A   22049.17778267 -.00000020  00000+0  00000+0 0  9997
2 47240   0.0159  96.3279 0001734  82.7044 277.7555  1.00271281  4497
IPM 2 & BREEZE-M R/B    
1 47242U 20097A   22048.22224612 -.00000072  00000+0  00000+0 0  9992
2 47242   1.0900  97.9514 0086130 230.1589 129.5450  0.95297495  4204
STRIX-ALPHA             
1 47253U 20098A   22049.19298109  .00008343  00000+0  35132-3 0  9990
2 47253  97.3355 302.1671 0011119 229.0706 250.3470 15.23552331 65354
CMS-01                  
1 47256U 20099A   22048.86948207 -.00000163  00000+0  00000+0 0  9993
2 47256   0.0676 275.3767 0007019   6.0766 262.3502  1.00270579  4357
ONEWEB-0102             
1 47258U 20100A   22049.11891710 -.00000809  00000+0 -22849-2 0  9999
2 47258  87.8870 304.7544 0001691  90.3854 269.7469 13.12443793 57472
ONEWEB-0109             
1 47259U 20100B   22048.74928270 -.00000221  00000+0 -64829-3 0  9993
2 47259  87.8987 304.7777 0001801  84.8810 275.2524 13.12444974 57255
ONEWEB-0110             
1 47260U 20100C   22048.92487005  .00000511  00000+0  13850-2 0  9998
2 47260  87.8892 304.7528 0001810  93.6388 266.4948 13.12443198 57444
ONEWEB-0111             
1 47261U 20100D   22048.72620718 -.00000353  00000+0 -10159-2 0  9992
2 47261  87.8895 304.8217 0001683  88.7653 271.3668 13.12441525 57257
ONEWEB-0114             
1 47262U 20100E   22048.75853968  .00000199  00000+0  51744-3 0  9993
2 47262  87.8956 304.7241 0002133  81.7793 278.3578 13.12444771 57210
